[{"OBJECT_NAME":"CALSPHERE 4A","OBJECT_ID":"1965-065H","EPOCH":"2026-03-09T20:35:03.926112","MEAN_MOTION":13.36259191,"ECCENTRICITY":0.00702161,"INCLINATION":89.9031,"RA_OF_ASC_NODE":123.4695,"ARG_OF_PERICENTER":25.7531,"MEAN_ANOMALY":24.8766,"EPHEMERIS_TYPE":0,"CLASSIFICATION_TYPE":"U","NORAD_CAT_ID":1520,"ELEMENT_SET_NO":999,"REV_AT_EPOCH":94944,"BSTAR":0.00016646069,"MEAN_MOTION_DOT":9.6e-7,"MEAN_MOTION_DDOT":0},{"OBJECT_NAME":"NIMBUS 2 DEB","OBJECT_ID":"1966-040CG","EPOCH":"2026-03-09T22:29:06.721440","MEAN_MOTION":13.40769164,"ECCENTRICITY":0.00507319,"INCLINATION":100.2992,"RA_OF_ASC_NODE":242.408,"ARG_OF_PERICENTER":90.6029,"MEAN_ANOMALY":270.0912,"EPHEMERIS_TYPE":0,"CLASSIFICATION_TYPE":"U","NORAD_CAT_ID":59977,"ELEMENT_SET_NO":999,"REV_AT_EPOCH":44495,"BSTAR":0.0027672797,"MEAN_MOTION_DOT":1.49e-5,"MEAN_MOTION_DDOT":0}]
